NORAD_CAT_ID,OBJECT_NAME,OBJECT_TYPE,EPOCH,MEAN_MOTION,ECCENTRICITY,INCLINATION,RA_OF_ASC_NODE,ARG_OF_PERICENTER,MEAN_ANOMALY,BSTAR,MEAN_MOTION_DOT,MEAN_MOTION_DDOT,TLE_LINE0,TLE_LINE1,TLE_LINE2,SEMIMAJOR_AXIS,PERIOD,APOGEE,PERIGEE,DECAYED
53619.0,STARLINK-4609,PAYLOAD,2024-07-17 21:01:55,15.08837958,0.0001773,53.2181,46.7877,117.2837,242.8336,0.00010017,1.306e-05,0.0,0 STARLINK-4609,1 53619U 22104AH  24199.87634082  .00001306  00000-0  10017-3 0  9998,2 53619  53.2181  46.7877 0001773 117.2837 242.8336 15.08837958105088,6917.887,95.438,540.978,538.525,0.0
53619.0,STARLINK-4609,PAYLOAD,2024-07-18 06:34:14,15.08842606,0.0001496,53.2183,44.9977,91.3191,268.7972,0.00022896,3.358e-05,0.0,0 STARLINK-4609,1 53619U 22104AH  24200.27377971  .00003358  00000-0  22896-3 0  9993,2 53619  53.2183  44.9977 0001496  91.3191 268.7972 15.08842606105144,6917.872,95.437,540.772,538.703,0.0
53619.0,STARLINK-4609,PAYLOAD,2024-07-18 20:52:43,15.088415,0.0001543,53.2183,42.3268,96.0843,264.0325,-1.2917e-06,-3.09e-06,0.0,0 STARLINK-4609,1 53619U 22104AH  24200.86994307 -.00000309  00000-0 -12917-5 0  9996,2 53619  53.2183  42.3268 0001543  96.0843 264.0325 15.08841500104667,6917.876,95.437,540.808,538.673,0.0
53619.0,STARLINK-4609,PAYLOAD,2024-07-19 00:03:29,15.08842734,0.0001618,53.2188,41.7257,90.3002,269.8175,2.0515e-05,3.8e-07,0.0,0 STARLINK-4609,1 53619U 22104AH  24201.00242302  .00000038  00000-0  20515-4 0  9993,2 53619  53.2188  41.7257 0001618  90.3002 269.8175 15.08842734105252,6917.872,95.437,540.856,538.618,0.0
53619.0,STARLINK-4609,PAYLOAD,2024-07-19 20:43:30,15.08845736,0.0001369,53.2176,37.8638,86.075,274.0399,0.00023447,3.446e-05,0.0,0 STARLINK-4609,1 53619U 22104AH  24201.86354315  .00003446  00000-0  23447-3 0  9997,2 53619  53.2176  37.8638 0001369  86.0750 274.0399 15.08845736105388,6917.863,95.437,540.675,538.781,0.0
53619.0,STARLINK-4609,PAYLOAD,2024-07-20 06:15:48,15.08844281,0.0001219,53.2169,36.0805,89.3899,270.7233,0.00017458,2.492e-05,0.0,0 STARLINK-4609,1 53619U 22104AH  24202.26098263  .00002492  00000-0  17458-3 0  9994,2 53619  53.2169  36.0805 0001219  89.3899 270.7233 15.08844281104878,6917.867,95.437,540.576,538.889,0.0
53619.0,STARLINK-4609,PAYLOAD,2024-07-20 20:34:16,15.08849434,0.0001164,53.2169,33.4005,89.6718,270.4407,0.00015921,2.248e-05,0.0,0 STARLINK-4609,1 53619U 22104AH  24202.85714016  .00002248  00000-0  15921-3 0  9992,2 53619  53.2169  33.4005 0001164  89.6718 270.4407 15.08849434105532,6917.852,95.437,540.522,538.911,0.0
53619.0,STARLINK-4609,PAYLOAD,2024-07-21 06:06:35,15.08844558,0.0001219,53.2173,31.6164,89.4609,270.6523,7.499e-05,9.06e-06,0.0,0 STARLINK-4609,1 53619U 22104AH  24203.25458201  .00000906  00000-0  74990-4 0  9999,2 53619  53.2173  31.6164 0001219  89.4609 270.6523 15.08844558105028,6917.866,95.437,540.575,538.888,0.0
53619.0,STARLINK-4609,PAYLOAD,2024-07-21 18:49:40,15.08847155,0.0001197,53.2176,29.2382,95.8299,264.283,1.8332e-05,4e-08,0.0,0 STARLINK-4609,1 53619U 22104AH  24203.78450036  .00000004  00000-0  18332-4 0  9992,2 53619  53.2176  29.2382 0001197  95.8299 264.2830 15.08847155105674,6917.859,95.437,540.552,538.895,0.0
53619.0,STARLINK-4609,PAYLOAD,2024-07-22 21:51:14,15.08847512,0.000118,53.2166,24.1845,87.3164,272.7963,9.1743e-05,1.173e-05,0.0,0 STARLINK-4609,1 53619U 22104AH  24204.91057950  .00001173  00000-0  91743-4 0  9991,2 53619  53.2166  24.1845 0001180  87.3164 272.7963 15.08847512105847,6917.857,95.437,540.539,538.906,0.0
53619.0,STARLINK-4609,PAYLOAD,2024-07-23 21:42:01,15.0883592,0.0001184,53.2169,19.7222,99.4957,260.6169,-1.5482e-06,-3.12e-06,0.0,0 STARLINK-4609,1 53619U 22104AH  24205.90418596 -.00000312  00000-0 -15482-5 0  9991,2 53619  53.2169  19.7222 0001184  99.4957 260.6169 15.08835920105997,6917.893,95.438,540.577,538.939,0.0
53619.0,STARLINK-4609,PAYLOAD,2024-07-25 19:48:12,15.08839887,0.0001192,53.2178,11.0991,93.1511,266.9617,3.5813e-05,2.82e-06,0.0,0 STARLINK-4609,1 53619U 22104AH  24207.82514717  .00000282  00000-0  35813-4 0  9999,2 53619  53.2178  11.0991 0001192  93.1511 266.9617 15.08839887105714,6917.881,95.438,540.57,538.921,0.0
53619.0,STARLINK-4609,PAYLOAD,2024-07-26 10:06:41,15.08839363,0.0001285,53.2149,8.4228,83.2072,276.9067,8.6065e-05,1.082e-05,0.0,0 STARLINK-4609,1 53619U 22104AH  24208.42130980  .00001082  00000-0  86065-4 0  9996,2 53619  53.2149   8.4228 0001285  83.2072 276.9067 15.08839363106372,6917.882,95.438,540.636,538.858,0.0
53619.0,STARLINK-4609,PAYLOAD,2024-07-26 19:38:58,15.08854368,9.63e-05,53.2173,6.6393,97.7613,262.3489,0.00019822,2.87e-05,0.0,0 STARLINK-4609,1 53619U 22104AH  24208.81873463  .00002870  00000-0  19822-3 0  9991,2 53619  53.2173   6.6393 0000963  97.7613 262.3489 15.08854368105867,6917.836,95.437,540.368,539.035,0.0
53619.0,STARLINK-4609,PAYLOAD,2024-07-27 03:35:55,15.08837243,0.0001387,53.2192,5.1532,83.1752,276.9398,4.0306e-05,3.54e-06,0.0,0 STARLINK-4609,1 53619U 22104AH  24209.14995153  .00000354  00000-0  40306-4 0  9996,2 53619  53.2192   5.1532 0001387  83.1752 276.9398 15.08837243105910,6917.889,95.438,540.713,538.794,0.0
53619.0,STARLINK-4609,PAYLOAD,2024-07-27 19:29:47,15.08833759,0.000171,53.2183,2.1813,85.1676,274.9511,2.3822e-05,9.1e-07,0.0,0 STARLINK-4609,1 53619U 22104AH  24209.81235715  .00000091  00000-0  23822-4 0  9993,2 53619  53.2183   2.1813 0001710  85.1676 274.9511 15.08833759106583,6917.899,95.438,540.947,538.582,0.0
53619.0,STARLINK-4609,PAYLOAD,2024-07-28 09:48:15,15.08843198,0.0001558,53.2186,359.5052,85.6627,274.4543,3.3529e-05,2.46e-06,0.0,0 STARLINK-4609,1 53619U 22104AH  24210.40851212  .00000246  00000-0  33529-4 0  9993,2 53619  53.2186 359.5052 0001558  85.6627 274.4543 15.08843198106107,6917.871,95.437,540.813,538.658,0.0
53619.0,STARLINK-4609,PAYLOAD,2024-07-28 17:45:10,15.08854361,0.0001062,53.2182,358.0175,90.5873,269.5241,3.7609e-05,3.11e-06,0.0,0 STARLINK-4609,1 53619U 22104AH  24210.73970256  .00000311  00000-0  37609-4 0  9995,2 53619  53.2182 358.0175 0001062  90.5873 269.5241 15.08854361106150,6917.836,95.437,540.436,538.967,0.0
53619.0,STARLINK-4609,PAYLOAD,2024-07-29 03:17:29,15.08844665,0.0001518,53.2183,356.2338,83.5556,276.5609,0.00016268,2.302e-05,0.0,0 STARLINK-4609,1 53619U 22104AH  24211.13714667  .00002302  00000-0  16268-3 0  9991,2 53619  53.2183 356.2338 0001518  83.5556 276.5609 15.08844665106217,6917.866,95.437,540.781,538.681,0.0
53619.0,STARLINK-4609,PAYLOAD,2024-07-29 17:35:57,15.08843969,0.0001385,53.2184,353.5578,84.5059,275.6091,0.00011254,1.504e-05,0.0,0 STARLINK-4609,1 53619U 22104AH  24211.73330854  .00001504  00000-0  11254-3 0  9992,2 53619  53.2184 353.5578 0001385  84.5059 275.6091 15.08843969106878,6917.868,95.437,540.691,538.775,0.0
53619.0,STARLINK-4609,PAYLOAD,2024-07-30 03:08:16,15.0884164,0.0001363,53.2184,351.7734,85.0133,275.1015,9.7524e-05,1.265e-05,0.0,0 STARLINK-4609,1 53619U 22104AH  24212.13075006  .00001265  00000-0  97524-4 0  9991,2 53619  53.2184 351.7734 0001363  85.0133 275.1015 15.08841640106366,6917.875,95.437,540.683,538.797,0.0
53619.0,STARLINK-4609,PAYLOAD,2024-07-30 15:51:21,15.08844758,0.0001405,53.2187,349.3947,85.2758,274.8395,6.8197e-05,7.98e-06,0.0,0 STARLINK-4609,1 53619U 22104AH  24212.66066820  .00000798  00000-0  68197-4 0  9997,2 53619  53.2187 349.3947 0001405  85.2758 274.8395 15.08844758107013,6917.866,95.437,540.703,538.759,0.0
53619.0,STARLINK-4609,PAYLOAD,2024-07-31 12:31:23,15.08836135,0.000131,53.2188,345.5291,82.2729,277.8412,1.4701e-05,-5.4e-07,0.0,0 STARLINK-4609,1 53619U 22104AH  24213.52179472 -.00000054  00000-0  14701-4 0  9999,2 53619  53.2188 345.5291 0001310  82.2729 277.8412 15.08836135106577,6917.892,95.438,540.663,538.851,0.0
53619.0,STARLINK-4609,PAYLOAD,2024-07-31 14:06:46,15.0883645,0.0001317,53.2188,345.2317,82.2795,277.8347,1.3015e-05,-8.1e-07,0.0,0 STARLINK-4609,1 53619U 22104AH  24213.58803444 -.00000081  00000-0  13015-4 0  9995,2 53619  53.2188 345.2317 0001317  82.2795 277.8347 15.08836450107155,6917.891,95.438,540.667,538.845,0.0
53619.0,STARLINK-4609,PAYLOAD,2024-07-31 18:52:55,15.08837226,0.0001371,53.2188,344.3376,95.7065,264.4083,9.7915e-05,1.271e-05,0.0,0 STARLINK-4609,1 53619U 22104AH  24213.78675136  .00001271  00000-0  97915-4 0  9994,2 53619  53.2188 344.3376 0001371  95.7065 264.4083 15.08837226107183,6917.889,95.438,540.702,538.805,0.0
53619.0,STARLINK-4609,PAYLOAD,2024-08-01 12:22:09,15.08838781,0.0001259,53.2184,341.066,90.2562,269.8574,8.6325e-05,1.086e-05,0.0,0 STARLINK-4609,1 53619U 22104AH  24214.51539159  .00001086  00000-0  86325-4 0  9997,2 53619  53.2184 341.0660 0001259  90.2562 269.8574 15.08838781107299,6917.884,95.438,540.62,538.878,0.0
53619.0,STARLINK-4609,PAYLOAD,2024-08-02 01:05:14,15.08845911,0.000125,53.2187,338.6877,85.2375,274.876,0.00020625,2.997e-05,0.0,0 STARLINK-4609,1 53619U 22104AH  24215.04530345  .00002997  00000-0  20625-3 0  9996,2 53619  53.2187 338.6877 0001250  85.2375 274.8760 15.08845911106803,6917.862,95.437,540.592,538.863,0.0
53619.0,STARLINK-4609,PAYLOAD,2024-08-02 12:12:58,15.08822136,0.0001391,53.2188,336.607,93.6474,266.4677,-8.1145e-05,-1.578e-05,0.0,0 STARLINK-4609,1 53619U 22104AH  24215.50901000 -.00001578  00000-0 -81145-4 0  9998,2 53619  53.2188 336.6070 0001391  93.6474 266.4677 15.08822136106871,6917.935,95.439,540.762,538.838,0.0
53619.0,STARLINK-4609,PAYLOAD,2024-08-02 13:48:21,15.0882373,0.0001448,53.2188,336.3097,97.8168,262.2989,-7.0601e-05,-1.411e-05,0.0,0 STARLINK-4609,1 53619U 22104AH  24215.57524917 -.00001411  00000-0 -70601-4 0  9994,2 53619  53.2188 336.3097 0001448  97.8168 262.2989 15.08823730107452,6917.93,95.439,540.797,538.793,0.0
53619.0,STARLINK-4609,PAYLOAD,2024-08-03 00:56:02,15.08836073,0.0001308,53.219,334.2275,75.4281,284.6856,5.9088e-05,6.53e-06,0.0,0 STARLINK-4609,1 53619U 22104AH  24216.03892181  .00000653  00000-0  59088-4 0  9998,2 53619  53.2190 334.2275 0001308  75.4281 284.6856 15.08836073106952,6917.892,95.438,540.662,538.853,0.0
